ELECTRON KICK STAGE R/B 
1 68411U 26065D   26093.44277751  .00267226  22379-5  34497-3 0  9999
2 68411  97.4160 336.0543 0176039  10.7329 349.7619 15.83817593   965
XINZHENGCHENG-01        
1 68412U 26066A   26092.99755543  .00001283  00000+0  13573-3 0  9992
2 68412  84.8508 275.7933 0023441 189.3714 170.7075 14.88095472   543
LIJIAN-2 R/B            
1 68413U 26066B   26093.74299711  .03325710 -13682-5  32953-3 0  9994
2 68413  84.7058 274.9472 0525665 196.4876 161.8704 15.22567818   654
2026-066C               
1 68414U 26066C   26093.80455066  .00002339  00000+0  22927-3 0  9998
2 68414  85.1331 274.8711 0065547  46.0550 314.6055 14.90103412   664
SL-4 R/B                
1 68537U 26061S   26095.11649021  .00223567  17279-4  64147-3 0  9990
2 68537  82.3042  94.6462 0024177  24.0526 336.1870 15.92549431  1979
TACHELES                
1 68539U 26069B   26092.55069444 -.00190496  11727-5 -71298-2 0  9993
2 68539  28.3448 359.8421 8430033  77.7942 194.3023  1.02407762    02
SWC-1                   
1 68540U 26069C   26092.51428241 -.00154659  00000+0 -17117+1 0  9990
2 68540  28.3462 359.8168 8375109  77.1630 217.7352  1.01595625    08
K-RADCUBE               
1 68541U 26069D   26092.67815972 -.00078411  19505-5 -17218-4 0  9992
2 68541  28.3341 359.8703 8450105  77.6642 243.1767  1.02517944    33
MERIDIAN-M 21L          
1 68571U 26071A   26093.32069436 -.00001265  00000+0  16587-2 0  9999
2 68571  62.7917 238.8364 7241466 284.9481  10.7459  1.98618778    13
FREGAT R/B              
1 68572U 26071B   26093.32132148 -.00001541  00000+0  35052-3 0  9997
2 68572  63.0589 237.9448 7313819 284.9724  10.3188  2.01041412    13
